FLOCK 4G-23             
1 62647U 25009AQ  26117.18169739  .00047783  00000+0  16996-2 0  9993
2 62647  97.3943 199.0419 0002634 135.7356 224.4095 15.28820699 71127
FLOCK 4G-34             
1 62650U 25009AT  26117.20135727  .00013048  00000+0  47647-3 0  9995
2 62650  97.3967 199.1167 0003440 119.8320 240.3262 15.28241766 71123
FLOCK 4G-21             
1 62651U 25009AU  26117.21234442  .00014397  00000+0  50449-3 0  9993
2 62651  97.3997 199.8879 0003254 121.3160 238.8399 15.29570281 71162
FLOCK 4G-31             
1 62652U 25009AV  26117.22149640  .00013173  00000+0  48339-3 0  9996
2 62652  97.3975 199.1257 0003077 122.3793 237.7745 15.28078738 71126
FLOCK 4G-4              
1 62659U 25009BC  26117.16871765  .00013217  00000+0  48848-3 0  9990
2 62659  97.3956 198.8119 0003879 129.2396 230.9188 15.27839247128713
FLOCK 4G-6              
1 62660U 25009BD  26116.77628570  .00012642  00000+0  45687-3 0  9991
2 62660  97.3947 198.5079 0004647 139.9403 220.2180 15.28584854128646
FLOCK 4G-2              
1 62661U 25009BE  26117.17824384  .00014020  00000+0  50226-3 0  9995
2 62661  97.4012 199.4435 0005474 135.7165 224.4514 15.28846165128738
FLOCK 4G-5              
1 62663U 25009BG  26117.20694034  .00011897  00000+0  41697-3 0  9999
2 62663  97.4026 199.7750 0004844 121.2207 238.9509 15.29605281 71144
FLOCK 4G-1              
1 62666U 25009BK  26117.21838012  .00013870  00000+0  50075-3 0  9992
2 62666  97.4027 199.4706 0005707 134.1688 226.0022 15.28591240 71125
FLOCK 4G-14             
1 62667U 25009BL  26117.22775749  .00014139  00000+0  51620-3 0  9997
2 62667  97.4027 199.3255 0005917 129.3486 230.8279 15.28219104 71111
FLOCK 4G-10             
1 62670U 25009BP  26117.17687493  .00012330  00000+0  45017-3 0  9997
2 62670  97.3931 198.6684 0005716 143.2759 216.8874 15.28249730128746
FLOCK 4G-36             
1 62675U 25009BU  26116.78026936  .00013037  00000+0  47444-3 0  9998
2 62675  97.4016 198.8011 0006090 134.7943 225.3793 15.28343096 71043
FLOCK 4G-15             
1 62678U 25009BX  26117.18274293  .00013996  00000+0  50869-3 0  9996
2 62678  97.4019 199.3351 0006240 131.0855 229.0925 15.28367436128754
FLOCK 4G-30             
1 62679U 25009BY  26116.71494629  .00046468  00000+0  16633-2 0  9992
2 62679  97.3931 198.2324 0005449 148.6481 211.5084 15.28610033128671
FLOCK 4G-18             
1 62680U 25009BZ  26117.18053597  .00013864  00000+0  50428-3 0  9996
2 62680  97.4018 199.1617 0006523 141.2450 218.9259 15.28340842128745
FLOCK 4G-17             
1 62681U 25009CA  26117.21763102  .00013331  00000+0  48272-3 0  9994
2 62681  97.3931 198.9176 0005929 144.0323 216.1317 15.28502806128762
